[Satellite]
VERSION=1.1
NAME=STARLINK-4639
NICKNAME=STARLINK-4639
TLE1=1 53971U 22125H   22296.91667824 -.01209722  00000+0 -13799-1 0  9995
TLE2=2 53971  53.2177   2.8695 0001559  44.7222 173.3369 15.64343977  1308
STATUS=0
